ONEWEB-0446             
1 51640U 22012U   24191.48940851  .00000684  00000+0  19231-2 0  9994
2 51640  87.8946 177.0115 0001742  90.9063 269.2264 13.10373427116643
ONEWEB-0448             
1 51641U 22012V   24191.49438952  .00000631  00000+0  17724-2 0  9997
2 51641  87.8945 177.0113 0002154  84.0922 276.0451 13.10371111116616
ONEWEB-0449             
1 51642U 22012W   24191.49936482  .00000507  00000+0  14147-2 0  9997
2 51642  87.8937 177.0043 0002182  93.6647 266.4730 13.10372903116625
ONEWEB-0451             
1 51643U 22012X   24191.40804685  .00000114  00000+0  25950-3 0  9997
2 51643  87.9177 146.7690 0002260  82.4152 277.7236 13.17649200120454
ONEWEB-0452             
1 51644U 22012Y   24191.40644000  .00000156  00000+0  36880-3 0  9991
2 51644  87.9182 146.8106 0002399  87.2701 272.8705 13.17649924120461
ONEWEB-0456             
1 51646U 22012AA  24191.50931883 -.00000079  00000+0 -26294-3 0  9996
2 51646  87.8932 176.9737 0001868  77.8158 282.3178 13.10370215116664
ONEWEB-0457             
1 51647U 22012AB  24191.48608432  .00000673  00000+0  18930-2 0  9990
2 51647  87.8946 177.0022 0001997  94.8836 265.2520 13.10372918116667
ONEWEB-0458             
1 51648U 22012AC  24191.50765715  .00000104  00000+0  26304-3 0  9996
2 51648  87.8943 177.0140 0002216  86.5803 273.5577 13.10370651116625
